{"type": "FeatureCollection", "features": [ {"type": "Feature", "properties": {"norad_id": 34529, "name": "IRIDIUM 33 DEB", "group": "iridium-33-debris", "lat": 9.25029979576125, "lon": 39.84042229784339, "alt_km": 760.7314684663334, "timestamp": "2025-12-03T17:47:51.103049+00:00", "meta": {"OBJECT_NAME": "IRIDIUM 33 DEB", "OBJECT_ID": "1997-051HW", "EPOCH": "2025-12-03T04:25:06.115584", "MEAN_MOTION": 14.40603135, "ECCENTRICITY": 0.00036637, "INCLINATION": 86.3649, "RA_OF_ASC_NODE": 39.4847, "ARG_OF_PERICENTER": 211.6368, "MEAN_ANOMALY": 148.4612, "EPHEMERIS_TYPE": 0, "CLASSIFICATION_TYPE": "U", "NORAD_CAT_ID": 34529, "ELEMENT_SET_NO": 999, "REV_AT_EPOCH": 88004, "BSTAR": 0.00016704296, "MEAN_MOTION_DOT": 5.52e-06, "MEAN_MOTION_DDOT": 0}, "tle": {"line1": "1 34529U 97051HW  25337.18409856  .00000552  00000+0  16704-3 0  9998", "line2": "2 34529  86.3649  39.4847 0003663 211.6368 148.4612 14.40603135880044"}}, "geometry": {"type": "Point", "coordinates": [39.84042229784339, 9.25029979576125]}}, {"type": "Feature", "properties": {"norad_id": 34538, "name": "IRIDIUM 33 DEB", "group": "iridium-33-debris", "lat": 37.73995110790672, "lon": -173.3904293636003, "alt_km": 766.8969588364434, "timestamp": "2025-12-03T17:47:51.103059+00:00", "meta": {"OBJECT_NAME": "IRIDIUM 33 DEB", "OBJECT_ID": "1997-051JF", "EPOCH": "2025-12-03T09:06:24.180192", "MEAN_MOTION": 14.42557361, "ECCENTRICITY": 0.0033974, "INCLINATION": 86.2784, "RA_OF_ASC_NODE": 9.6557, "ARG_OF_PERICENTER": 359.4688, "MEAN_ANOMALY": 63.0233, "EPHEMERIS_TYPE": 0, "CLASSIFICATION_TYPE": "U", "NORAD_CAT_ID": 34538, "ELEMENT_SET_NO": 999, "REV_AT_EPOCH": 87621, "BSTAR": 0.0012709, "MEAN_MOTION_DOT": 4.264e-05, "MEAN_MOTION_DDOT": 0}, "tle": {"line1": "1 34538U 97051JF  25337.37944653  .00004264  00000+0  12709-2 0  9992", "line2": "2 34538  86.2784   9.6557 0033974 359.4688  63.0233 14.42557361876210"}}, "geometry": {"type": "Point", "coordinates": [-173.3904293636003, 37.73995110790672]}}, {"type": "Feature", "properties": {"norad_id": 34540, "name": "IRIDIUM 33 DEB", "group": "iridium-33-debris", "lat": -46.79036093095152, "lon": 135.6603339380273, "alt_km": 643.4834739827975, "timestamp": "2025-12-03T17:47:51.103070+00:00", "meta": {"OBJECT_NAME": "IRIDIUM 33 DEB", "OBJECT_ID": "1997-051JH", "EPOCH": "2025-12-03T05:26:21.211296", "MEAN_MOTION": 14.74981692, "ECCENTRICITY": 0.0014801, "INCLINATION": 86.3092, "RA_OF_ASC_NODE": 311.9555, "ARG_OF_PERICENTER": 194.145, "MEAN_ANOMALY": 180.1243, "EPHEMERIS_TYPE": 0, "CLASSIFICATION_TYPE": "U", "NORAD_CAT_ID": 34540, "ELEMENT_SET_NO": 999, "REV_AT_EPOCH": 88881, "BSTAR": 0.0021818, "MEAN_MOTION_DOT": 0.00014731, "MEAN_MOTION_DDOT": 0}, "tle": {"line1": "1 34540U 97051JH  25337.22663439  .00014731  00000+0  21818-2 0  9990", "line2": "2 34540  86.3092 311.9555 0014801 194.1450 180.1243 14.74981692888816"}}, "geometry": {"type": "Point", "coordinates": [135.6603339380273, -46.79036093095152]}}, {"type": "Feature", "properties": {"norad_id": 34648, "name": "IRIDIUM 33 DEB", "group": "iridium-33-debris", "lat": -80.55341775176389, "lon": -96.71840203580481, "alt_km": 771.2256089993198, "timestamp": "2025-12-03T17:47:51.103081+00:00", "meta": {"OBJECT_NAME": "IRIDIUM 33 DEB", "OBJECT_ID": "1997-051JZ", "EPOCH": "2025-12-01T03:11:38.418720", "MEAN_MOTION": 14.1087899, "ECCENTRICITY": 0.01868529, "INCLINATION": 86.3903, "RA_OF_ASC_NODE": 286.6295, "ARG_OF_PERICENTER": 334.6513, "MEAN_ANOMALY": 24.5588, "EPHEMERIS_TYPE": 0, "CLASSIFICATION_TYPE": "U", "NORAD_CAT_ID": 34648, "ELEMENT_SET_NO": 999, "REV_AT_EPOCH": 84797, "BSTAR": 0.0079356223, "MEAN_MOTION_DOT": 0.00016788, "MEAN_MOTION_DDOT": 0}, "tle": {"line1": "1 34648U 97051JZ  25335.13308355  .00016788  00000+0  79356-2 0  9994", "line2": "2 34648  86.3903 286.6295 0186852 334.6513  24.5588 14.10878990847973"}}, "geometry": {"type": "Point", "coordinates": [-96.71840203580481, -80.55341775176389]}}, {"type": "Feature", "properties": {"norad_id": 34651, "name": "IRIDIUM 33 DEB", "group": "iridium-33-debris", "lat": -51.30552511332215, "lon": -30.941793064999036, "alt_km": 711.7256798841863, "timestamp": "2025-12-03T17:47:51.103091+00:00", "meta": {"OBJECT_NAME": "IRIDIUM 33 DEB", "OBJECT_ID": "1997-051KC", "EPOCH": "2025-12-02T05:19:54.206688", "MEAN_MOTION": 14.25531146, "ECCENTRICITY": 0.0141862, "INCLINATION": 86.2826, "RA_OF_ASC_NODE": 145.0488, "ARG_OF_PERICENTER": 237.4272, "MEAN_ANOMALY": 121.3155, "EPHEMERIS_TYPE": 0, "CLASSIFICATION_TYPE": "U", "NORAD_CAT_ID": 34651, "ELEMENT_SET_NO": 999, "REV_AT_EPOCH": 85746, "BSTAR": 0.0036308, "MEAN_MOTION_DOT": 9.56e-05, "MEAN_MOTION_DDOT": 0}, "tle": {"line1": "1 34651U 97051KC  25336.22215517  .00009560  00000+0  36308-2 0  9996", "line2": "2 34651  86.2826 145.0488 0141862 237.4272 121.3155 14.25531146857462"}}, "geometry": {"type": "Point", "coordinates": [-30.941793064999036, -51.30552511332215]}}, {"type": "Feature", "properties": {"norad_id": 34652, "name": "IRIDIUM 33 DEB", "group": "iridium-33-debris", "lat": -8.511254860558076, "lon": 164.55897861541123, "alt_km": 706.2358718028781, "timestamp": "2025-12-03T17:47:51.103102+00:00", "meta": {"OBJECT_NAME": "IRIDIUM 33 DEB", "OBJECT_ID": "1997-051KD", "EPOCH": "2025-12-02T12:03:44.445600", "MEAN_MOTION": 14.61898676, "ECCENTRICITY": 0.00270627, "INCLINATION": 86.3312, "RA_OF_ASC_NODE": 344.5601, "ARG_OF_PERICENTER": 334.9096, "MEAN_ANOMALY": 177.4047, "EPHEMERIS_TYPE": 0, "CLASSIFICATION_TYPE": "U", "NORAD_CAT_ID": 34652, "ELEMENT_SET_NO": 999, "REV_AT_EPOCH": 88334, "BSTAR": 0.0012168376, "MEAN_MOTION_DOT": 6.139e-05, "MEAN_MOTION_DDOT": 0}, "tle": {"line1": "1 34652U 97051KD  25336.50259775  .00006139  00000+0  12168-2 0  9999", "line2": "2 34652  86.3312 344.5601 0027062 334.9096 177.4047 14.61898676883341"}}, "geometry": {"type": "Point", "coordinates": [164.55897861541123, -8.511254860558076]}}, {"type": "Feature", "properties": {"norad_id": 34690, "name": "IRIDIUM 33 DEB", "group": "iridium-33-debris", "lat": -83.62431869814085, "lon": 6.383296008374634, "alt_km": 723.1485144401777, "timestamp": "2025-12-03T17:47:51.103112+00:00", "meta": {"OBJECT_NAME": "IRIDIUM 33 DEB", "OBJECT_ID": "1997-051KM", "EPOCH": "2025-12-03T11:52:36.056064", "MEAN_MOTION": 14.55037039, "ECCENTRICITY": 0.0011766, "INCLINATION": 86.3793, "RA_OF_ASC_NODE": 41.009, "ARG_OF_PERICENTER": 56.8306, "MEAN_ANOMALY": 7.0908, "EPHEMERIS_TYPE": 0, "CLASSIFICATION_TYPE": "U", "NORAD_CAT_ID": 34690, "ELEMENT_SET_NO": 999, "REV_AT_EPOCH": 87960, "BSTAR": 0.00070544, "MEAN_MOTION_DOT": 3.062e-05, "MEAN_MOTION_DDOT": 0}, "tle": {"line1": "1 34690U 97051KM  25337.49486176  .00003062  00000+0  70544-3 0  9992", "line2": "2 34690  86.3793  41.0090 0011766  56.8306   7.0908 14.55037039879604"}}, "geometry": {"type": "Point", "coordinates": [6.383296008374634, -83.62431869814085]}}, {"type": "Feature", "properties": {"norad_id": 34693, "name": "IRIDIUM 33 DEB", "group": "iridium-33-debris", "lat": 1.652206100842997, "lon": 128.1776432508412, "alt_km": 498.9244226353221, "timestamp": "2025-12-03T17:47:51.103123+00:00", "meta": {"OBJECT_NAME": "IRIDIUM 33 DEB", "OBJECT_ID": "1997-051KQ", "EPOCH": "2025-12-03T09:49:19.549056", "MEAN_MOTION": 15.24618598, "ECCENTRICITY": 0.0016087, "INCLINATION": 86.3049, "RA_OF_ASC_NODE": 308.4487, "ARG_OF_PERICENTER": 66.5202, "MEAN_ANOMALY": 88.8029, "EPHEMERIS_TYPE": 0, "CLASSIFICATION_TYPE": "U", "NORAD_CAT_ID": 34693, "ELEMENT_SET_NO": 999, "REV_AT_EPOCH": 88772, "BSTAR": 0.0053872, "MEAN_MOTION_DOT": 0.00135539, "MEAN_MOTION_DDOT": 0}, "tle": {"line1": "1 34693U 97051KQ  25337.40925404  .00135539  00000+0  53872-2 0  9997", "line2": "2 34693  86.3049 308.4487 0016087  66.5202  88.8029 15.24618598887720"}}, "geometry": {"type": "Point", "coordinates": [128.1776432508412, 1.652206100842997]}}, {"type": "Feature", "properties": {"norad_id": 34696, "name": "IRIDIUM 33 DEB", "group": "iridium-33-debris", "lat": 78.50068342649142, "lon": -167.43738944938082, "alt_km": 678.3604151535628, "timestamp": "2025-12-03T17:47:51.103133+00:00", "meta": {"OBJECT_NAME": "IRIDIUM 33 DEB", "OBJECT_ID": "1997-051KT", "EPOCH": "2025-12-03T04:28:11.099712", "MEAN_MOTION": 14.64206057, "ECCENTRICITY": 0.0074915, "INCLINATION": 86.1857, "RA_OF_ASC_NODE": 31.9639, "ARG_OF_PERICENTER": 199.7908, "MEAN_ANOMALY": 216.5568, "EPHEMERIS_TYPE": 0, "CLASSIFICATION_TYPE": "U", "NORAD_CAT_ID": 34696, "ELEMENT_SET_NO": 999, "REV_AT_EPOCH": 86533, "BSTAR": 0.0073652, "MEAN_MOTION_DOT": 0.00040594, "MEAN_MOTION_DDOT": 0}, "tle": {"line1": "1 34696U 97051KT  25337.18623958  .00040594  00000+0  73652-2 0  9998", "line2": "2 34696  86.1857  31.9639 0074915 199.7908 216.5568 14.64206057865338"}}, "geometry": {"type": "Point", "coordinates": [-167.43738944938082, 78.50068342649142]}}, {"type": "Feature", "properties": {"norad_id": 34765, "name": "IRIDIUM 33 DEB", "group": "iridium-33-debris", "lat": 56.7874775834762, "lon": 42.23286975843407, "alt_km": 762.0417138465309, "timestamp": "2025-12-03T17:47:51.103143+00:00", "meta": {"OBJECT_NAME": "IRIDIUM 33 DEB", "OBJECT_ID": "1997-051LJ", "EPOCH": "2025-12-02T05:08:41.186976", "MEAN_MOTION": 14.40418764, "ECCENTRICITY": 0.00145508, "INCLINATION": 86.3401, "RA_OF_ASC_NODE": 37.2773, "ARG_OF_PERICENTER": 249.3549, "MEAN_ANOMALY": 173.3707, "EPHEMERIS_TYPE": 0, "CLASSIFICATION_TYPE": "U", "NORAD_CAT_ID": 34765, "ELEMENT_SET_NO": 999, "REV_AT_EPOCH": 87462, "BSTAR": 0.00049787542, "MEAN_MOTION_DOT": 1.602e-05, "MEAN_MOTION_DDOT": 0}, "tle": {"line1": "1 34765U 97051LJ  25336.21436559  .00001602  00000+0  49788-3 0  9998", "line2": "2 34765  86.3401  37.2773 0014550 249.3549 173.3707 14.40418764874623"}}, "geometry": {"type": "Point", "coordinates": [42.23286975843407, 56.7874775834762]}}]}